{"spkid": "50633070", "covariance": {"epoch": "2456887.5", "data": [["1.653711807496465E-15", "-3.811072532356654E-15", "-4.815614429806369E-14", "9.831173177652612E-14", "2.470289735455128E-13", "2.175820596191889E-14"], ["-3.811072532356654E-15", "8.784443804252089E-15", "1.069353310824264E-13", "-2.153692797275429E-13", "-5.817235762433632E-13", "-5.089741249004762E-14"], ["-4.815614429806369E-14", "1.069353310824264E-13", "4.002427145394658E-11", "-3.030362166048124E-12", "8.031500844395201E-12", "1.097440909702E-11"], ["9.831173177652612E-14", "-2.153692797275429E-13", "-3.030362166048124E-12", "2.471218525841288E-8", "-2.468115262002441E-8", "1.340489078324756E-9"], ["2.470289735455128E-13", "-5.817235762433632E-13", "8.031500844395201E-12", "-2.468115262002441E-8", "2.473555629790902E-8", "-1.333081323124857E-9"], ["2.175820596191889E-14", "-5.089741249004762E-14", "1.097440909702E-11", "1.340489078324756E-9", "-1.333081323124857E-9", "8.818385210257969E-11"]], "elements": [{"units": null, "title": "eccentricity", "value": ".7850190670740922", "name": "e", "sigma": 4.06658555485614e-08, "label": "e"}, {"label": "q", "sigma": 9.3725363718964e-08, "name": "q", "title": "perihelion distance", "value": ".4931126929505265", "units": "au"}, {"label": "tp", "units": "TDB", "value": "2456445.089764676108", "title": "time of perihelion passage", "name": "tp", "sigma": 6.32647385626042e-06}, {"label": "node", "name": "om", "sigma": 0.000157201098146333, "value": "153.8864602066701", "title": "longitude of the ascending node", "units": "deg"}, {"sigma": 0.000157275415427552, "name": "w", "units": "deg", "value": "148.0370694305255", "title": "argument of perihelion", "label": "peri"}, {"label": "i", "sigma": 9.3906257567097e-06, "name": "i", "title": "inclination", "value": "2.948000456443648", "units": "deg"}], "labels": ["e", "q", "tp", "node", "peri", "i"]}, "elements": [{"sigma": "3.8501E-8", "name": "e", "units": null, "value": ".7847845956371619", "title": "eccentricity", "label": "e"}, {"label": "a", "sigma": "5.2461E-9", "name": "a", "value": "2.292444216432489", "title": "semi-major axis", "units": "au"}, {"sigma": "8.8104E-8", "name": "q", "value": ".4933693090187679", "title": "perihelion distance", "units": "au", "label": "q"}, {"label": "i", "title": "inclination; angle with respect to x-y ecliptic plane", "value": "3.013879193856958", "units": "deg", "sigma": "9.6522E-6", "name": "i"}, {"label": "node", "name": "om", "sigma": ".00015184", "title": "longitude of the ascending node", "value": "153.0737795069159", "units": "deg"}, {"title": "argument of perihelion", "value": "148.9098142144576", "units": "deg", "sigma": ".00015196", "name": "w", "label": "peri"}, {"label": "M", "name": "ma", "sigma": "4.5125E-6", "title": "mean anomaly", "value": "266.3437388075585", "units": "deg"}, {"sigma": "1.6893E-5", "name": "tp", "value": "2461530.322977029933", "title": "time of perihelion passage", "units": "TDB", "label": "tp"}, {"name": "per", "sigma": "4.3519E-6", "units": "d", "value": "1267.787868307073", "title": "sidereal orbital period", "label": "period"}, {"sigma": "9.7473E-10", "name": "n", "units": "deg/d", "title": "mean motion", "value": ".2839591772405285", "label": "n"}, {"label": "Q", "name": "ad", "sigma": "9.3632E-9", "value": "4.091519123846211", "title": "aphelion distance", "units": "au"}], "epoch": "2461200.5"}